EUTELSAT 8 WEST B       
1 40875U 15039B   25274.92579374 -.00000065  00000+0  00000+0 0  9998
2 40875   0.0682   6.4003 0003743 187.2940 142.5110  1.00271334 37064
EUTELSAT 9B             
1 41310U 16005A   25274.08933546  .00000064  00000+0  00000+0 0  9997
2 41310   0.0460  50.2542 0002748 172.2221 188.7909  1.00274389 35517
EUTELSAT 65 WEST A      
1 41382U 16014A   25274.55762870 -.00000275  00000+0  00000+0 0  9993
2 41382   0.0608  24.4730 0002200 162.3588 319.2846  1.00271808 34941
EUTELSAT 117 WEST B     
1 41589U 16038B   25274.90404843 -.00000011  00000+0  00000+0 0  9998
2 41589   0.0224  37.9085 0000307 219.4438 321.9783  1.00271819 34076
EUTELSAT 172B           
1 42741U 17029B   25274.89009503 -.00000005  00000+0  00000+0 0  9995
2 42741   0.0160 184.9474 0000331 268.6641  49.7153  1.00269895 31142
EUTELSAT 7C             
1 44334U 19034B   25274.09489315  .00000050  00000+0  00000+0 0  9997
2 44334   0.0651 182.4870 0003321 347.2905 241.4832  1.00271584  4232
EUTELSAT 5 WEST B       
1 44624U 19067A   25274.92631374 -.00000041  00000+0  00000+0 0  9992
2 44624   0.0657 355.7588 0003153 194.4722 149.1596  1.00272082 21844
EUTELSAT KONNECT        
1 45027U 20005B   25274.57192876  .00000050  00000+0  00000+0 0  9993
2 45027   0.0657  95.9808 0001463  79.9402  47.7257  1.00269900 21734
